SPAINSAT NG I           
1 62852U 25021A   26179.45351645  .00000163  00000+0  00000+0 0  9999
2 62852   0.0182 358.7481 0000279  82.0383  28.0108  1.00270934  4104
QZS-6 (MICHIBIKI-6)     
1 62876U 25023A   26179.65327861 -.00000222  00000+0  00000+0 0  9999
2 62876   0.0521 282.3683 0002110 188.1012 131.9822  1.00273059  5060
ZHONGXING-10R           
1 63075U 25036A   26179.61228407 -.00000341  00000+0  00000+0 0  9999
2 63075   0.0652 246.8656 0004058 256.9735 103.8189  1.00273661  5075
TJS-15                  
1 63157U 25045A   26179.77883705 -.00000252  00000+0  00000+0 0  9996
2 63157   0.2971  85.6238 0004566 303.7601 262.1869  1.00268035  4874
TIANLIAN 2-04           
1 63361U 25062A   26179.57388964 -.00000119  00000+0  00000+0 0  9999
2 63361   4.3460 274.2717 0031099  10.1276 278.9343  1.00271761  4710
TJS-16                  
1 63397U 25064A   26179.78237992 -.00000094  00000+0  00000+0 0  9999
2 63397   1.1272  81.4101 0003149 299.6233 338.1180  1.00272289  4503
TJS-17                  
1 63524U 25073A   26179.78150970 -.00000059  00000+0  00000+0 0  9992
2 63524   1.0931  82.6193 0001786 314.3979 325.7498  1.00271030  4403
TIANLIAN 2-05           
1 63662U 25084A   26179.04489368  .00000142  00000+0  00000+0 0  9994
2 63662   4.4242 279.7079 0003446 156.2864 236.7154  1.00275415  4491
TJS-19                  
1 63924U 25097A   26179.78194269 -.00000261  00000+0  00000+0 0  9996
2 63924   3.2670 317.6263 0003163 237.7111 144.3116  1.00273358  4268
CHINASAT 3B             
1 64062U 25106A   26179.07906992 -.00000033  00000+0  00000+0 0  9994
2 64062   0.0267 124.3588 0003646   4.4311 343.1558  1.00272810  4170
SXM-10                  
1 64290U 25122A   26179.56738770 -.00000005  00000+0  00000+0 0  9995
2 64290   0.0169  28.3234 0001942 345.2907 351.1394  1.00271896  3796
COSMOS 2589             
1 64467U 25131A   26179.76691918 -.00000280  00000+0  00000+0 0  9990
2 64467   0.0374 114.2852 0000901 101.5914  75.0533  1.00272749  3678
CHINASAT 9C             
1 64470U 25132A   26179.56780966 -.00000236  00000+0  00000+0 0  9996
2 64470   0.0369  93.0949 0003411   0.6878 119.4984  1.00271537  4267
MTG-S1                  
1 64723U 25143A   26179.30521948  .00000004  00000+0  00000+0 0  9996
2 64723   0.5945 341.3250 0002752 267.8651 136.6277  1.00272049  3534
DROR 1                  
1 64784U 25148A   26179.37579979 -.00000023  00000+0  00000+0 0  9994
2 64784   0.0166 353.1167 0002695  47.0899   7.5330  1.00272085  3409
SHIYAN-29               
1 65486U 25196A   26179.57581096 -.00000274  00000+0  00000+0 0  9990
2 65486  28.8333  18.3917 0012899 174.8171  25.7235  1.00282940  2995
NUSANTARA LIMA (NUSANT*)
1 65588U 25205A   26179.32759737 -.00000346  00000+0  00000+0 0  9996
2 65588   0.0087 108.7468 0000595  32.0624   6.4120  1.00270410  2830
TJS-20                  
1 66142U 25238A   26179.46018981  .00000042  00000+0  00000+0 0  9995
2 66142   5.4446 299.5072 0004750 165.7345  39.3680  1.00270932  2448
CMS-03 (GSAT-7R)        
1 66311U 25249B   26179.60509073 -.00000065  00000+0  00000+0 0  9994
2 66311   0.0653 262.7201 0002194 166.9617 138.8210  1.00272026  2460
VIASAT-3 F2             
1 66454U 25261A   26179.50350633 -.00000222  00000+0  00000+0 0  9996
2 66454   0.0151 181.0556 0000396 344.7690 213.0586  1.00269449  2902
SHIJIAN-28 (SJ-28)      
1 66549U 25277A   26179.61358409 -.00000343  00000+0  00000+0 0  9993
2 66549   4.5095 271.9473 0000689  44.4090 298.0892  1.00272138  2264
TJS-22                  
1 66990U 25290A   26178.84785495  .00000007  00000+0  00000+0 0  9997
2 66990   1.5029 286.7081 0002308 321.6486  39.2870  1.00272774  2139
TJS-23                  
1 67226U 25306A   26178.57359297  .00000034  00000+0  00000+0 0  9995
2 67226   5.5645 297.4332 0004569 182.3014 177.9032  1.00271298  1991
FENGYUN 4C              
1 67246U 25312A   26179.66526904 -.00000311  00000+0  00000+0 0  9995
2 67246   0.0489 167.6653 0000619 352.2976 129.2959  1.00271842  1892
SHIJIAN-29A (SJ-29A)    
1 67302U 25315A   26179.74745877 -.00000059  00000+0  00000+0 0  9991
2 67302   3.4263  94.8378 0003592  23.5895 140.6384  1.00271295  1732
SHIJIAN-29B (SJ-29B)    
1 67403U 25315C   26179.74754544 -.00000059  00000+0  00000+0 0  9994
2 67403   3.4253  94.8309 0004611  37.7210 126.5788  1.00271227  1802
ELEKTRO-L 5             
1 67756U 26028A   26179.02173222 -.00000086  00000+0  00000+0 0  9996
2 67756   0.2329 316.2979 0001789 183.0184 220.6939  1.00272131  1364
JAM-E JAM 1             
1 67757U 26028B   26179.59716950  .00000167  00000+0  00000+0 0  9999
2 67757   0.2371 306.0163 0001187 349.1719 230.5950  1.00266750  1234
ECHOSTAR 25             
1 68126U 26045A   26179.56868770  .00000000  00000+0  00000+0 0  9990
2 68126   0.0253  31.5230 0001864  71.9305 267.9468  1.00272437  1103
TJS-24                  
1 69235U 26116A   26179.77554890 -.00000219  00000+0  00000+0 0  9992
2 69235   0.0431 104.3340 0000597 351.7937 190.2140  1.00270433   340
