OBJECT_NAME,OBJECT_ID,EPOCH,MEAN_MOTION,ECCENTRICITY,INCLINATION,RA_OF_ASC_NODE,ARG_OF_PERICENTER,MEAN_ANOMALY,EPHEMERIS_TYPE,CLASSIFICATION_TYPE,NORAD_CAT_ID,ELEMENT_SET_NO,REV_AT_EPOCH,BSTAR,MEAN_MOTION_DOT,MEAN_MOTION_DDOT
SPAINSAT NG I,2025-021A,2026-06-28T10:53:03.821280,1.00270934,.00002792,0.0182,358.7481,82.0383,28.0108,0,U,62852,999,410,0,.163E-5,0
QZS-6 (MICHIBIKI-6),2025-023A,2026-06-28T15:40:43.271904,1.00273059,.00021104,0.0521,282.3683,188.1012,131.9822,0,U,62876,999,506,0,-.222E-5,0
ZHONGXING-10R,2025-036A,2026-06-28T14:41:41.343648,1.00273661,.00040582,0.0652,246.8656,256.9735,103.8189,0,U,63075,999,507,0,-.341E-5,0
TJS-15,2025-045A,2026-06-28T18:41:31.521120,1.00268035,.0004566,0.2971,85.6238,303.7601,262.1869,0,U,63157,999,487,0,-.252E-5,0
TIANLIAN 2-04,2025-062A,2026-06-28T13:46:24.064896,1.00271761,.00310991,4.3460,274.2717,10.1276,278.9343,0,U,63361,999,471,0,-.119E-5,0
TJS-16,2025-064A,2026-06-28T18:46:37.625088,1.00272289,.0003149,1.1272,81.4101,299.6233,338.1180,0,U,63397,999,450,0,-.94E-6,0
TJS-17,2025-073A,2026-06-28T18:45:22.438080,1.00271030,.0001786,1.0931,82.6193,314.3979,325.7498,0,U,63524,999,440,0,-.59E-6,0
TIANLIAN 2-05,2025-084A,2026-06-28T01:04:38.813952,1.00275415,.00034466,4.4242,279.7079,156.2864,236.7154,0,U,63662,999,449,0,.142E-5,0
TJS-19,2025-097A,2026-06-28T18:45:59.848416,1.00273358,.0003163,3.2670,317.6263,237.7111,144.3116,0,U,63924,999,426,0,-.261E-5,0
CHINASAT 3B,2025-106A,2026-06-28T01:53:51.641088,1.00272810,.00036465,0.0267,124.3588,4.4311,343.1558,0,U,64062,999,417,0,-.33E-6,0
SXM-10,2025-122A,2026-06-28T13:37:02.297280,1.00271896,.00019422,0.0169,28.3234,345.2907,351.1394,0,U,64290,999,379,0,-.5E-7,0
COSMOS 2589,2025-131A,2026-06-28T18:24:21.817152,1.00272749,.0000901,0.0374,114.2852,101.5914,75.0533,0,U,64467,999,367,0,-.28E-5,0
CHINASAT 9C,2025-132A,2026-06-28T13:37:38.754624,1.00271537,.00034112,0.0369,93.0949,0.6878,119.4984,0,U,64470,999,426,0,-.236E-5,0
MTG-S1,2025-143A,2026-06-28T07:19:30.963072,1.00272049,.00027523,0.5945,341.3250,267.8651,136.6277,0,U,64723,999,353,0,.4E-7,0
DROR 1,2025-148A,2026-06-28T09:01:09.101856,1.00272085,.00026956,0.0166,353.1167,47.0899,7.5330,0,U,64784,999,340,0,-.23E-6,0
SHIYAN-29,2025-196A,2026-06-28T13:49:10.066944,1.00282940,.00128998,28.8333,18.3917,174.8171,25.7235,0,U,65486,999,299,0,-.274E-5,0
NUSANTARA LIMA (NUSANTARA 5),2025-205A,2026-06-28T07:51:44.412768,1.00270410,.00005957,0.0087,108.7468,32.0624,6.4120,0,U,65588,999,283,0,-.346E-5,0
TJS-20,2025-238A,2026-06-28T11:02:40.399584,1.00270932,.00047506,5.4446,299.5072,165.7345,39.3680,0,U,66142,999,244,0,.42E-6,0
CMS-03 (GSAT-7R),2025-249B,2026-06-28T14:31:19.839072,1.00272026,.00021942,0.0653,262.7201,166.9617,138.8210,0,U,66311,999,246,0,-.65E-6,0
VIASAT-3 F2,2025-261A,2026-06-28T12:05:02.946912,1.00269449,.00003968,0.0151,181.0556,344.7690,213.0586,0,U,66454,999,290,0,-.222E-5,0
SHIJIAN-28 (SJ-28),2025-277A,2026-06-28T14:43:33.665376,1.00272138,.00006894,4.5095,271.9473,44.4090,298.0892,0,U,66549,999,226,0,-.343E-5,0
TJS-22,2025-290A,2026-06-27T20:20:54.667680,1.00272774,.00023088,1.5029,286.7081,321.6486,39.2870,0,U,66990,999,213,0,.7E-7,0
TJS-23,2025-306A,2026-06-27T13:45:58.432608,1.00271298,.00045692,5.5645,297.4332,182.3014,177.9032,0,U,67226,999,199,0,.34E-6,0
FENGYUN 4C,2025-312A,2026-06-28T15:57:59.245056,1.00271842,.00006191,0.0489,167.6653,352.2976,129.2959,0,U,67246,999,189,0,-.311E-5,0
SHIJIAN-29A (SJ-29A),2025-315A,2026-06-28T17:56:20.437728,1.00271295,.0003592,3.4263,94.8378,23.5895,140.6384,0,U,67302,999,173,0,-.59E-6,0
SHIJIAN-29B (SJ-29B),2025-315C,2026-06-28T17:56:27.926016,1.00271227,.0004611,3.4253,94.8309,37.7210,126.5788,0,U,67403,999,180,0,-.59E-6,0
ELEKTRO-L 5,2026-028A,2026-06-28T00:31:17.663808,1.00272131,.00017891,0.2329,316.2979,183.0184,220.6939,0,U,67756,999,136,0,-.86E-6,0
JAM-E JAM 1,2026-028B,2026-06-28T14:19:55.444800,1.00266750,.0001187,0.2371,306.0163,349.1719,230.5950,0,U,67757,999,123,0,.167E-5,0
ECHOSTAR 25,2026-045A,2026-06-28T13:38:54.617280,1.00272437,.00018641,0.0253,31.5230,71.9305,267.9468,0,U,68126,999,110,0,0,0
TJS-24,2026-116A,2026-06-28T18:36:47.424960,1.00270433,.0000597,0.0431,104.3340,351.7937,190.2140,0,U,69235,999,34,0,-.219E-5,0
